MTI                     
1 26102U 00014A   16109.42201603  .00009779  00000-0  23071-3 0  9999
2 26102  97.5257 257.8185 0010034  15.0079  46.6711 15.42053143888955
CFESAT                  
1 30777U 07006F   16109.50510206  .00006749  00000-0  24340-3 0  9995
2 30777  35.4266 253.1426 0002905 135.1246 224.9713 15.27906717502935
SPIRALE A               
1 33751U 09008C   16105.61864016  .00000165  00000-0  23692-3 0  9998
2 33751   2.0298 225.7442 5566547 312.7505  12.1355  4.58578680 91265
SPIRALE B               
1 33752U 09008D   16108.60180267  .00009023  00000-0  18652-2 0  9991
2 33752   1.8332 214.2470 6993096 326.5830   4.4474  2.65608740 63457
SAPPHIRE                
1 39088U 13009C   16109.14337115  .00000036  00000-0  28576-4 0  9994
2 39088  98.5873 309.8896 0012483 112.2630 247.9880 14.34095766164459
